start=new Date('2022-09-06T00:00:00.000Z').valueOf();
sats=[{"TLE_LINE2":"2 53152  53.2174 158.4327 0001379  64.1696  94.4653 15.51600524  1306","BSTAR":"-0.01929500000000","OBJECT_TYPE":"PAYLOAD","INCLINATION":"53.2174","COUNTRY_CODE":"US","CLASSIFICATION_TYPE":"U","RCS_SIZE":"LARGE","MEAN_ELEMENT_THEORY":"SGP4","APOAPSIS":"412.991","MEAN_MOTION":"15.51600524","ECCENTRICITY":"0.00013790","MEAN_MOTION_DOT":"-0.01057615","MEAN_MOTION_DDOT":"0.0000000000000","ELEMENT_SET_NO":"999","EPOCH":"2022-09-05T22:00:00.999936","PERIAPSIS":"411.118","FILE":"3559723","SITE":"AFETR","ARG_OF_PERICENTER":"64.1696","TLE_LINE1":"1 53152U 22083W   22248.91667824 -.01057615  00000-0 -19295-1 0  9996","RA_OF_ASC_NODE":"158.4327","DECAY_DATE":null,"CENTER_NAME":"EARTH","GP_ID":"211836965","LAUNCH_DATE":"2022-07-17","TIME_SYSTEM":"UTC","OBJECT_NAME":"STARLINK-4045","SEMIMAJOR_AXIS":"6790.190","OBJECT_ID":"2022-083W","REF_FRAME":"TEME","EPHEMERIS_TYPE":"0","MEAN_ANOMALY":"94.4653","PERIOD":"92.807","NORAD_CAT_ID":"53152","REV_AT_EPOCH":"130"},{"REV_AT_EPOCH":"130","MEAN_ANOMALY":"90.1482","PERIOD":"92.806","NORAD_CAT_ID":"53153","OBJECT_NAME":"STARLINK-4098","SEMIMAJOR_AXIS":"6790.128","OBJECT_ID":"2022-083X","REF_FRAME":"TEME","EPHEMERIS_TYPE":"0","TLE_LINE1":"1 53153U 22083X   22248.91667824 -.01057984  00000-0 -19288-1 0  9998","RA_OF_ASC_NODE":"158.4692","DECAY_DATE":null,"CENTER_NAME":"EARTH","GP_ID":"211836259","TIME_SYSTEM":"UTC","LAUNCH_DATE":"2022-07-17","ARG_OF_PERICENTER":"70.9596","ELEMENT_SET_NO":"999","EPOCH":"2022-09-05T22:00:00.999936","PERIAPSIS":"411.082","FILE":"3559723","SITE":"AFETR","COUNTRY_CODE":"US","RCS_SIZE":"LARGE","CLASSIFICATION_TYPE":"U","MEAN_ELEMENT_THEORY":"SGP4","APOAPSIS":"412.905","ECCENTRICITY":"0.00013420","MEAN_MOTION":"15.51621491","MEAN_MOTION_DOT":"-0.01057984","MEAN_MOTION_DDOT":"0.0000000000000","TLE_LINE2":"2 53153  53.2174 158.4692 0001342  70.9596  90.1482 15.51621491  1305","BSTAR":"-0.01928800000000","OBJECT_TYPE":"PAYLOAD","INCLINATION":"53.2174"},{"ARG_OF_PERICENTER":"75.8898","SITE":"AFETR","PERIAPSIS":"411.149","FILE":"3559723","ELEMENT_SET_NO":"999","EPOCH":"2022-09-05T22:00:00.999936","MEAN_MOTION_DOT":"-0.01057738","MEAN_MOTION_DDOT":"0.0000000000000","APOAPSIS":"412.919","ECCENTRICITY":"0.00013040","MEAN_MOTION":"15.51607539","RCS_SIZE":"LARGE","CLASSIFICATION_TYPE":"U","MEAN_ELEMENT_THEORY":"SGP4","COUNTRY_CODE":"US","OBJECT_TYPE":"PAYLOAD","INCLINATION":"53.2174","BSTAR":"-0.01929300000000","TLE_LINE2":"2 53154  53.2174 158.4448 0001304  75.8898  83.5694 15.51607539  1300","REV_AT_EPOCH":"130","NORAD_CAT_ID":"53154","PERIOD":"92.807","MEAN_ANOMALY":"83.5694","OBJECT_ID":"2022-083Y","REF_FRAME":"TEME","EPHEMERIS_TYPE":"0","SEMIMAJOR_AXIS":"6790.169","OBJECT_NAME":"STARLINK-4077","TIME_SYSTEM":"UTC","LAUNCH_DATE":"2022-07-17","CENTER_NAME":"EARTH","GP_ID":"211836820","DECAY_DATE":null,"TLE_LINE1":"1 53154U 22083Y   22248.91667824 -.01057738  00000-0 -19293-1 0  9992","RA_OF_ASC_NODE":"158.4448"},{"REV_AT_EPOCH":"130","NORAD_CAT_ID":"53155","PERIOD":"92.805","MEAN_ANOMALY":"91.9749","EPHEMERIS_TYPE":"0","REF_FRAME":"TEME","OBJECT_ID":"2022-083Z","SEMIMAJOR_AXIS":"6790.068","OBJECT_NAME":"STARLINK-4088","TIME_SYSTEM":"UTC","LAUNCH_DATE":"2022-07-17","GP_ID":"211837115","CENTER_NAME":"EARTH","DECAY_DATE":null,"RA_OF_ASC_NODE":"158.4916","TLE_LINE1":"1 53155U 22083Z   22248.91667824 -.01057946  00000-0 -19273-1 0  9992","ARG_OF_PERICENTER":"71.6055","SITE":"AFETR","PERIAPSIS":"411.030","FILE":"3559723","ELEMENT_SET_NO":"999","EPOCH":"2022-09-05T22:00:00.999936","MEAN_MOTION_DDOT":"0.0000000000000","MEAN_MOTION_DOT":"-0.01057946","ECCENTRICITY":"0.00013310","APOAPSIS":"412.837","MEAN_MOTION":"15.51642038","MEAN_ELEMENT_THEORY":"SGP4","RCS_SIZE":"LARGE","CLASSIFICATION_TYPE":"U","COUNTRY_CODE":"US","INCLINATION":"53.2174","OBJECT_TYPE":"PAYLOAD","BSTAR":"-0.01927300000000","TLE_LINE2":"2 53155  53.2174 158.4916 0001331  71.6055  91.9749 15.51642038  1307"},{"REV_AT_EPOCH":"130","PERIOD":"92.805","MEAN_ANOMALY":"89.1959","NORAD_CAT_ID":"53156","OBJECT_NAME":"STARLINK-4087","OBJECT_ID":"2022-083AA","REF_FRAME":"TEME","EPHEMERIS_TYPE":"0","SEMIMAJOR_AXIS":"6790.088","DECAY_DATE":null,"TLE_LINE1":"1 53156U 22083AA  22248.91667824 -.01058009  00000-0 -19279-1 0  9990","RA_OF_ASC_NODE":"158.4894","LAUNCH_DATE":"2022-07-17","TIME_SYSTEM":"UTC","CENTER_NAME":"EARTH","GP_ID":"211836552","ARG_OF_PERICENTER":"73.5602","FILE":"3559723","PERIAPSIS":"411.057","EPOCH":"2022-09-05T22:00:00.999936","ELEMENT_SET_NO":"999","SITE":"AFETR","CLASSIFICATION_TYPE":"U","RCS_SIZE":"LARGE","MEAN_ELEMENT_THEORY":"SGP4","COUNTRY_CODE":"US","MEAN_MOTION_DOT":"-0.01058009","MEAN_MOTION_DDOT":"0.0000000000000","ECCENTRICITY":"0.00013200","APOAPSIS":"412.849","MEAN_MOTION":"15.51635319","TLE_LINE2":"2 53156  53.2174 158.4894 0001320  73.5602  89.1959 15.51635319  1306","BSTAR":"-0.01927900000000","OBJECT_TYPE":"PAYLOAD","INCLINATION":"53.2174"},{"OBJECT_NAME":"STARLINK-4093","OBJECT_ID":"2022-083AB","REF_FRAME":"TEME","EPHEMERIS_TYPE":"0","SEMIMAJOR_AXIS":"6790.028","DECAY_DATE":null,"TLE_LINE1":"1 53157U 22083AB  22248.91667824 -.01057672  00000-0 -19258-1 0  9993","RA_OF_ASC_NODE":"158.5156","TIME_SYSTEM":"UTC","LAUNCH_DATE":"2022-07-17","CENTER_NAME":"EARTH","GP_ID":"211836672","REV_AT_EPOCH":"130","PERIOD":"92.804","MEAN_ANOMALY":"97.2034","NORAD_CAT_ID":"53157","RCS_SIZE":"LARGE","CLASSIFICATION_TYPE":"U","MEAN_ELEMENT_THEORY":"SGP4","COUNTRY_CODE":"US","MEAN_MOTION_DOT":"-0.01057672","MEAN_MOTION_DDOT":"0.0000000000000","APOAPSIS":"412.798","MEAN_MOTION":"15.51655728","ECCENTRICITY":"0.00013320","BSTAR":"-0.01925800000000","TLE_LINE2":"2 53157  53.2175 158.5156 0001332  68.0248  97.2034 15.51655728  1308","OBJECT_TYPE":"PAYLOAD","INCLINATION":"53.2175","ARG_OF_PERICENTER":"68.0248","FILE":"3559723","PERIAPSIS":"410.989","ELEMENT_SET_NO":"999","EPOCH":"2022-09-05T22:00:00.999936","SITE":"AFETR"},{"ARG_OF_PERICENTER":"74.2250","ELEMENT_SET_NO":"999","EPOCH":"2022-09-05T22:00:00.999936","PERIAPSIS":"411.075","FILE":"3559723","SITE":"AFETR","COUNTRY_CODE":"US","MEAN_ELEMENT_THEORY":"SGP4","RCS_SIZE":"LARGE","CLASSIFICATION_TYPE":"U","ECCENTRICITY":"0.00013230","APOAPSIS":"412.871","MEAN_MOTION":"15.51628472","MEAN_MOTION_DDOT":"0.0000000000000","MEAN_MOTION_DOT":"-0.01058021","BSTAR":"-0.01928400000000","TLE_LINE2":"2 53158  53.2174 158.4810 0001323  74.2250  87.7070 15.51628472  1306","INCLINATION":"53.2174","OBJECT_TYPE":"PAYLOAD","REV_AT_EPOCH":"130","MEAN_ANOMALY":"87.7070","PERIOD":"92.806","NORAD_CAT_ID":"53158","OBJECT_NAME":"STARLINK-4054","SEMIMAJOR_AXIS":"6790.108","EPHEMERIS_TYPE":"0","OBJECT_ID":"2022-083AC","REF_FRAME":"TEME","RA_OF_ASC_NODE":"158.4810","TLE_LINE1":"1 53158U 22083AC  22248.91667824 -.01058021  00000-0 -19284-1 0  9992","DECAY_DATE":null,"GP_ID":"211836407","CENTER_NAME":"EARTH","TIME_SYSTEM":"UTC","LAUNCH_DATE":"2022-07-17"},{"ARG_OF_PERICENTER":"45.5437","FILE":"3559723","PERIAPSIS":"410.777","ELEMENT_SET_NO":"999","EPOCH":"2022-09-05T22:00:00.999936","SITE":"AFETR","RCS_SIZE":"LARGE","CLASSIFICATION_TYPE":"U","MEAN_ELEMENT_THEORY":"SGP4","COUNTRY_CODE":"US","MEAN_MOTION_DOT":"-0.01056959","MEAN_MOTION_DDOT":"0.0000000000000","ECCENTRICITY":"0.00015860","APOAPSIS":"412.931","MEAN_MOTION":"15.51669153","TLE_LINE2":"2 53159  53.2175 158.5396 0001586  45.5437 121.3323 15.51669153  1304","BSTAR":"-0.01923300000000","OBJECT_TYPE":"PAYLOAD","INCLINATION":"53.2175","REV_AT_EPOCH":"130","PERIOD":"92.803","MEAN_ANOMALY":"121.3323","NORAD_CAT_ID":"53159","OBJECT_NAME":"STARLINK-4111","REF_FRAME":"TEME","OBJECT_ID":"2022-083AD","EPHEMERIS_TYPE":"0","SEMIMAJOR_AXIS":"6789.989","DECAY_DATE":null,"TLE_LINE1":"1 53159U 22083AD  22248.91667824 -.01056959  00000-0 -19233-1 0  9995","RA_OF_ASC_NODE":"158.5396","LAUNCH_DATE":"2022-07-17","TIME_SYSTEM":"UTC","CENTER_NAME":"EARTH","GP_ID":"211837291"},{"PERIOD":"92.804","MEAN_ANOMALY":"89.3420","NORAD_CAT_ID":"53160","REV_AT_EPOCH":"130","DECAY_DATE":null,"TLE_LINE1":"1 53160U 22083AE  22248.91667824 -.01057928  00000-0 -19268-1 0  9992","RA_OF_ASC_NODE":"158.5033","LAUNCH_DATE":"2022-07-17","TIME_SYSTEM":"UTC","CENTER_NAME":"EARTH","GP_ID":"211836966","OBJECT_NAME":"STARLINK-4096","OBJECT_ID":"2022-083AE","REF_FRAME":"TEME","EPHEMERIS_TYPE":"0","SEMIMAJOR_AXIS":"6790.048","FILE":"3559723","PERIAPSIS":"411.028","ELEMENT_SET_NO":"999","EPOCH":"2022-09-05T22:00:00.999936","SITE":"AFETR","ARG_OF_PERICENTER":"75.0624","BSTAR":"-0.01926800000000","TLE_LINE2":"2 53160  53.2175 158.5033 0001304  75.0624  89.3420 15.51648948  1308","OBJECT_TYPE":"PAYLOAD","INCLINATION":"53.2175","CLASSIFICATION_TYPE":"U","RCS_SIZE":"LARGE","MEAN_ELEMENT_THEORY":"SGP4","COUNTRY_CODE":"US","MEAN_MOTION_DOT":"-0.01057928","MEAN_MOTION_DDOT":"0.0000000000000","APOAPSIS":"412.799","MEAN_MOTION":"15.51648948","ECCENTRICITY":"0.00013040"},{"MEAN_ANOMALY":"96.0081","PERIOD":"92.802","NORAD_CAT_ID":"53161","REV_AT_EPOCH":"130","TLE_LINE1":"1 53161U 22083AF  22248.91667824 -.01056943  00000-0 -19220-1 0  9997","RA_OF_ASC_NODE":"158.5756","DECAY_DATE":null,"CENTER_NAME":"EARTH","GP_ID":"211836260","TIME_SYSTEM":"UTC","LAUNCH_DATE":"2022-07-17","OBJECT_NAME":"STARLINK-4055","SEMIMAJOR_AXIS":"6789.929","OBJECT_ID":"2022-083AF","REF_FRAME":"TEME","EPHEMERIS_TYPE":"0","ELEMENT_SET_NO":"999","EPOCH":"2022-09-05T22:00:00.999936","FILE":"3559723","PERIAPSIS":"410.932","SITE":"AFETR","ARG_OF_PERICENTER":"73.3387","BSTAR":"-0.01922000000000","TLE_LINE2":"2 53161  53.2176 158.5756 0001269  73.3387  96.0081 15.51689941  1305","OBJECT_TYPE":"PAYLOAD","INCLINATION":"53.2176","COUNTRY_CODE":"US","RCS_SIZE":"LARGE","CLASSIFICATION_TYPE":"U","MEAN_ELEMENT_THEORY":"SGP4","APOAPSIS":"412.655","MEAN_MOTION":"15.51689941","ECCENTRICITY":"0.00012690","MEAN_MOTION_DOT":"-0.01056943","MEAN_MOTION_DDOT":"0.0000000000000"}];
